EARTHCARE               
1 59908U 24101A   24188.60060407  .00013697  00000+0  20816-3 0  9990
2 59908  96.9824 315.8956 0004447  52.7408 307.4252 15.54657317  6006
